COMMENT,ORIGINATOR,NORAD_CAT_ID,OBJECT_NAME,OBJECT_TYPE,CLASSIFICATION_TYPE,INTLDES,EPOCH,EPOCH_MICROSECONDS,MEAN_MOTION,ECCENTRICITY,INCLINATION,RA_OF_ASC_NODE,ARG_OF_PERICENTER,MEAN_ANOMALY,EPHEMERIS_TYPE,ELEMENT_SET_NO,REV_AT_EPOCH,BSTAR,MEAN_MOTION_DOT,MEAN_MOTION_DDOT,FILE,TLE_LINE0,TLE_LINE1,TLE_LINE2,OBJECT_ID,OBJECT_NUMBER,SEMIMAJOR_AXIS,PERIOD,APOGEE,PERIGEE,DECAYED
"GENERATED VIA SPACETRACK.ORG API","18 SPCS","55095","SPACEBEE-162","PAYLOAD","U","23001CQ","2023-03-31 02:44:54","574656","15.17018874","0.0014661","97.4863","151.0282","271.6825","88.2729","0","999","1325","0.0014741","0.00029247","0","3876029","0 SPACEBEE-162","1 55095U 23001CQ  23090.11452054  .00029247  00000-0  14741-2 0  9999","2 55095  97.4863 151.0282 0014661 271.6825  88.2729 15.17018874 13250","2023-001CQ","55095","6892.993","94.923","524.964","504.752","0"
"GENERATED VIA SPACETRACK.ORG API","18 SPCS","55095","SPACEBEE-162","PAYLOAD","U","23001CQ","2023-04-01 04:04:37","416","15.17073222","0.0014564","97.4867","152.071","267.5049","92.4517","0","999","1341","0.0012706","0.00025225","0","3876925","0 SPACEBEE-162","1 55095U 23001CQ  23091.16987269  .00025225  00000-0  12706-2 0  9997","2 55095  97.4867 152.0710 0014564 267.5049  92.4517 15.17073222 13413","2023-001CQ","55095","6892.829","94.920","524.732","504.655","0"
"GENERATED VIA SPACETRACK.ORG API","18 SPCS","55095","SPACEBEE-162","PAYLOAD","U","23001CQ","2023-04-01 04:04:37","416","15.17073222","0.0014564","97.4867","152.071","267.5049","92.4517","0","999","1341","0.0012706","0.00025225","0","3877270","0 SPACEBEE-162","1 55095U 23001CQ  23091.16987269  .00025225  00000-0  12706-2 0  9997","2 55095  97.4867 152.0710 0014564 267.5049  92.4517 15.17073222 13413","2023-001CQ","55095","6892.829","94.920","524.732","504.655","0"
"GENERATED VIA SPACETRACK.ORG API","18 SPCS","55095","SPACEBEE-162","PAYLOAD","U","23001CQ","2023-04-01 21:29:23","272800","15.17102864","0.0014551","97.4866","152.7878","264.564","95.3933","0","999","1352","0.0011724","0.00023283","0","3877516","0 SPACEBEE-162","1 55095U 23001CQ  23091.89540825  .00023283  00000-0  11724-2 0  9991","2 55095  97.4866 152.7878 0014551 264.5640  95.3933 15.17102864 13525","2023-001CQ","55095","6892.739","94.918","524.633","504.574","0"
"GENERATED VIA SPACETRACK.ORG API","18 SPCS","55095","SPACEBEE-162","PAYLOAD","U","23001CQ","2023-04-02 03:49:17","986080","15.17114868","0.001454","97.4863","153.0486","263.6085","96.3493","0","999","1356","0.0012041","0.00023925","0","3878126","0 SPACEBEE-162","1 55095U 23001CQ  23092.15923595  .00023925  00000-0  12041-2 0  9996","2 55095  97.4863 153.0486 0014540 263.6085  96.3493 15.17114868 13565","2023-001CQ","55095","6892.702","94.917","524.589","504.545","0"
"GENERATED VIA SPACETRACK.ORG API","18 SPCS","55095","SPACEBEE-162","PAYLOAD","U","23001CQ","2023-04-02 14:54:08","245728","15.17134184","0.0014566","97.4862","153.5044","261.6189","98.3393","0","999","1363","0.0010562","0.00020981","0","3878105","0 SPACEBEE-162","1 55095U 23001CQ  23092.62092877  .00020981  00000-0  10562-2 0  9993","2 55095  97.4862 153.5044 0014566 261.6189  98.3393 15.17134184 13632","2023-001CQ","55095","6892.644","94.916","524.549","504.469","0"
"GENERATED VIA SPACETRACK.ORG API","18 SPCS","55095","SPACEBEE-162","PAYLOAD","U","23001CQ","2023-04-02 16:29:06","812160","15.17137025","0.0014565","97.4862","153.5696","261.3796","98.5787","0","999","1364","0.0010553","0.00020965","0","3878419","0 SPACEBEE-162","1 55095U 23001CQ  23092.68688440  .00020965  00000-0  10553-2 0  9998","2 55095  97.4862 153.5696 0014565 261.3796  98.5787 15.17137025 13642","2023-001CQ","55095","6892.635","94.916","524.539","504.461","0"
"GENERATED VIA SPACETRACK.ORG API","18 SPCS","55095","SPACEBEE-162","PAYLOAD","U","23001CQ","2023-04-03 03:33:56","504160","15.17156238","0.0014638","97.4859","154.026","259.7822","100.1761","0","999","1371","0.0010776","0.00021423","0","3879059","0 SPACEBEE-162","1 55095U 23001CQ  23093.14857065  .00021423  00000-0  10776-2 0  9998","2 55095  97.4859 154.0260 0014638 259.7822 100.1761 15.17156238 13710","2023-001CQ","55095","6892.577","94.914","524.532","504.353","0"
"GENERATED VIA SPACETRACK.ORG API","18 SPCS","55095","SPACEBEE-162","PAYLOAD","U","23001CQ","2023-04-04 03:18:32","808672","15.17195131","0.0014785","97.4852","155.0032","256.1099","103.8489","0","999","1386","0.0010101","0.00020097","0","3879682","0 SPACEBEE-162","1 55095U 23001CQ  23094.13787973  .00020097  00000-0  10101-2 0  9996","2 55095  97.4852 155.0032 0014785 256.1099 103.8489 15.17195131 13869","2023-001CQ","55095","6892.459","94.912","524.515","504.134","0"
"GENERATED VIA SPACETRACK.ORG API","18 SPCS","55095","SPACEBEE-162","PAYLOAD","U","23001CQ","2023-04-04 03:18:32","808672","15.17195131","0.0014785","97.4852","155.0032","256.1099","103.8489","0","999","1386","0.0010101","0.00020097","0","3879974","0 SPACEBEE-162","1 55095U 23001CQ  23094.13787973  .00020097  00000-0  10101-2 0  9996","2 55095  97.4852 155.0032 0014785 256.1099 103.8489 15.17195131 13869","2023-001CQ","55095","6892.459","94.912","524.515","504.134","0"
"GENERATED VIA SPACETRACK.ORG API","18 SPCS","55095","SPACEBEE-162","PAYLOAD","U","23001CQ","2023-04-05 09:22:59","569536","15.17245626","0.0014795","97.4849","156.2407","251.6326","108.3298","0","999","1405","0.0010167","0.00020258","0","3880853","0 SPACEBEE-162","1 55095U 23001CQ  23095.39096724  .00020258  00000-0  10167-2 0  9993","2 55095  97.4849 156.2407 0014795 251.6326 108.3298 15.17245626 14053","2023-001CQ","55095","6892.306","94.909","524.369","503.974","0"
"GENERATED VIA SPACETRACK.ORG API","18 SPCS","55095","SPACEBEE-162","PAYLOAD","U","23001CQ","2023-04-05 15:42:52","160832","15.17254945","0.0014808","97.485","156.5014","250.5871","109.3762","0","999","1409","0.0009511","0.00018949","0","3880905","0 SPACEBEE-162","1 55095U 23001CQ  23095.65477038  .00018949  00000-0  95110-3 0  9999","2 55095  97.4850 156.5014 0014808 250.5871 109.3762 15.17254945 14095","2023-001CQ","55095","6892.278","94.908","524.349","503.937","0"
"GENERATED VIA SPACETRACK.ORG API","18 SPCS","55095","SPACEBEE-162","PAYLOAD","U","23001CQ","2023-04-05 17:17:50","277120","15.17257428","0.0014801","97.485","156.5667","250.5186","109.4449","0","999","1410","0.00096383","0.00019205","0","3881153","0 SPACEBEE-162","1 55095U 23001CQ  23095.72072080  .00019205  00000-0  96383-3 0  9994","2 55095  97.4850 156.5667 0014801 250.5186 109.4449 15.17257428 14105","2023-001CQ","55095","6892.271","94.908","524.337","503.934","0"
"GENERATED VIA SPACETRACK.ORG API","18 SPCS","55095","SPACEBEE-162","PAYLOAD","U","23001CQ","2023-04-06 13:52:24","892032","15.17289535","0.0014851","97.485","157.4142","247.1678","112.7987","0","999","1423","0.00088938","0.0001773","0","3881771","0 SPACEBEE-162","1 55095U 23001CQ  23096.57806588  .00017730  00000-0  88938-3 0  9994","2 55095  97.4850 157.4142 0014851 247.1678 112.7987 15.17289535 14238","2023-001CQ","55095","6892.173","94.906","524.274","503.803","0"
"GENERATED VIA SPACETRACK.ORG API","18 SPCS","55095","SPACEBEE-162","PAYLOAD","U","23001CQ","2023-04-06 21:47:14","699328","15.17302737","0.0014849","97.485","157.7399","245.9619","114.006","0","999","1428","0.00090537","0.00018057","0","3882020","0 SPACEBEE-162","1 55095U 23001CQ  23096.90780902  .00018057  00000-0  90537-3 0  9993","2 55095  97.4850 157.7399 0014849 245.9619 114.0060 15.17302737 14285","2023-001CQ","55095","6892.133","94.905","524.233","503.764","0"
"GENERATED VIA SPACETRACK.ORG API","18 SPCS","55095","SPACEBEE-162","PAYLOAD","U","23001CQ","2023-04-06 21:47:14","699328","15.17302737","0.0014849","97.485","157.7399","245.9619","114.006","0","999","1428","0.00090537","0.00018057","0","3882049","0 SPACEBEE-162","1 55095U 23001CQ  23096.90780902  .00018057  00000-0  90537-3 0  9993","2 55095  97.4850 157.7399 0014849 245.9619 114.0060 15.17302737 14285","2023-001CQ","55095","6892.133","94.905","524.233","503.764","0"
"GENERATED VIA SPACETRACK.ORG API","18 SPCS","55095","SPACEBEE-162","PAYLOAD","U","23001CQ","2023-04-07 04:07:06","388608","15.1731448","0.0014825","97.4848","158.0005","244.9791","114.9903","0","999","1432","0.00096123","0.00019185","0","3882626","0 SPACEBEE-162","1 55095U 23001CQ  23097.17160172  .00019185  00000-0  96123-3 0  9994","2 55095  97.4848 158.0005 0014825 244.9791 114.9903 15.17314480 14322","2023-001CQ","55095","6892.098","94.905","524.180","503.745","0"
"GENERATED VIA SPACETRACK.ORG API","18 SPCS","55095","SPACEBEE-162","PAYLOAD","U","23001CQ","2023-04-08 03:51:33","912288","15.17349277","0.0014843","97.4845","158.9781","241.1374","118.837","0","999","1447","0.00085808","0.00017131","0","3883188","0 SPACEBEE-162","1 55095U 23001CQ  23098.16080917  .00017131  00000-0  85808-3 0  9999","2 55095  97.4845 158.9781 0014843 241.1374 118.8370 15.17349277 14474","2023-001CQ","55095","6891.993","94.902","524.087","503.628","0"
"GENERATED VIA SPACETRACK.ORG API","18 SPCS","55095","SPACEBEE-162","PAYLOAD","U","23001CQ","2023-04-08 03:51:33","912288","15.17349277","0.0014843","97.4845","158.9781","241.1374","118.837","0","999","1447","0.00085808","0.00017131","0","3883527","0 SPACEBEE-162","1 55095U 23001CQ  23098.16080917  .00017131  00000-0  85808-3 0  9999","2 55095  97.4845 158.9781 0014843 241.1374 118.8370 15.17349277 14474","2023-001CQ","55095","6891.993","94.902","524.087","503.628","0"
"GENERATED VIA SPACETRACK.ORG API","18 SPCS","55095","SPACEBEE-162","PAYLOAD","U","23001CQ","2023-04-09 09:55:49","981152","15.17392149","0.0014939","97.4838","160.2163","236.3811","123.5998","0","999","1466","0.00083871","0.00016763","0","3884308","0 SPACEBEE-162","1 55095U 23001CQ  23099.41377293  .00016763  00000-0  83871-3 0  9992","2 55095  97.4838 160.2163 0014939 236.3811 123.5998 15.17392149 14660","2023-001CQ","55095","6891.863","94.900","524.023","503.432","0"
